[
  {
    "CCSDS_OMM_VERS": "3.0",
    "COMMENT": "GENERATED VIA SPACE-TRACK.ORG API",
    "CREATION_DATE": "2026-02-19T17:59:09",
    "ORIGINATOR": "18 SPCS",
    "OBJECT_NAME": "CZ-6A DEB",
    "OBJECT_ID": "2024-140AZ",
    "CENTER_NAME": "EARTH",
    "REF_FRAME": "TEME",
    "TIME_SYSTEM": "UTC",
    "MEAN_ELEMENT_THEORY": "SGP4",
    "EPOCH": "2026-02-19T15:24:52.091712",
    "MEAN_MOTION": "14.61059868",
    "ECCENTRICITY": "0.01271750",
    "INCLINATION": "89.0814",
    "RA_OF_ASC_NODE": "289.5212",
    "ARG_OF_PERICENTER": "278.8402",
    "MEAN_ANOMALY": "79.8429",
    "EPHEMERIS_TYPE": "0",
    "CLASSIFICATION_TYPE": "U",
    "NORAD_CAT_ID": "60648",
    "ELEMENT_SET_NO": "999",
    "REV_AT_EPOCH": "8169",
    "BSTAR": "0.00030772269000",
    "MEAN_MOTION_DOT": "0.00001711",
    "MEAN_MOTION_DDOT": "0.0000000000000",
    "SEMIMAJOR_AXIS": "7067.891",
    "PERIOD": "98.559",
    "APOAPSIS": "779.642",
    "PERIAPSIS": "599.870",
    "OBJECT_TYPE": "DEBRIS",
    "RCS_SIZE": "MEDIUM",
    "COUNTRY_CODE": "PRC",
    "LAUNCH_DATE": "2024-08-06",
    "SITE": "TSC",
    "DECAY_DATE": null,
    "FILE": "5039972",
    "GP_ID": "313181728",
    "TLE_LINE0": "0 CZ-6A DEB",
    "TLE_LINE1": "1 60648U 24140AZ  26050.64226958  .00001711  00000-0  30772-3 0  9992",
    "TLE_LINE2": "2 60648  89.0814 289.5212 0127175 278.8402  79.8429 14.61059868 81690"
  },
  {
    "CCSDS_OMM_VERS": "3.0",
    "COMMENT": "GENERATED VIA SPACE-TRACK.ORG API",
    "CREATION_DATE": "2026-02-19T17:59:09",
    "ORIGINATOR": "18 SPCS",
    "OBJECT_NAME": "DELTA 1 DEB",
    "OBJECT_ID": "1975-052CC",
    "CENTER_NAME": "EARTH",
    "REF_FRAME": "TEME",
    "TIME_SYSTEM": "UTC",
    "MEAN_ELEMENT_THEORY": "SGP4",
    "EPOCH": "2026-02-19T15:24:23.419872",
    "MEAN_MOTION": "13.15535731",
    "ECCENTRICITY": "0.01688784",
    "INCLINATION": "99.6488",
    "RA_OF_ASC_NODE": "307.0225",
    "ARG_OF_PERICENTER": "331.0786",
    "MEAN_ANOMALY": "56.8725",
    "EPHEMERIS_TYPE": "0",
    "CLASSIFICATION_TYPE": "U",
    "NORAD_CAT_ID": "21358",
    "ELEMENT_SET_NO": "999",
    "REV_AT_EPOCH": "66456",
    "BSTAR": "0.00081292847000",
    "MEAN_MOTION_DOT": "0.00000289",
    "MEAN_MOTION_DDOT": "0.0000000000000",
    "SEMIMAJOR_AXIS": "7579.957",
    "PERIOD": "109.461",
    "APOAPSIS": "1329.831",
    "PERIAPSIS": "1073.813",
    "OBJECT_TYPE": "DEBRIS",
    "RCS_SIZE": "SMALL",
    "COUNTRY_CODE": "US",
    "LAUNCH_DATE": "1975-06-12",
    "SITE": "AFWTR",
    "DECAY_DATE": null,
    "FILE": "5039972",
    "GP_ID": "313161136",
    "TLE_LINE0": "0 DELTA 1 DEB",
    "TLE_LINE1": "1 21358U 75052CC  26050.64193773  .00000289  00000-0  81293-3 0  9996",
    "TLE_LINE2": "2 21358  99.6488 307.0225 0168878 331.0786  56.8725 13.15535731664564"
  },
  {
    "CCSDS_OMM_VERS": "3.0",
    "COMMENT": "GENERATED VIA SPACE-TRACK.ORG API",
    "CREATION_DATE": "2026-02-19T17:59:09",
    "ORIGINATOR": "18 SPCS",
    "OBJECT_NAME": "CZ-6A DEB",
    "OBJECT_ID": "2024-140CV",
    "CENTER_NAME": "EARTH",
    "REF_FRAME": "TEME",
    "TIME_SYSTEM": "UTC",
    "MEAN_ELEMENT_THEORY": "SGP4",
    "EPOCH": "2026-02-19T15:24:15.303456",
    "MEAN_MOTION": "14.39545200",
    "ECCENTRICITY": "0.01285615",
    "INCLINATION": "88.9910",
    "RA_OF_ASC_NODE": "285.6342",
    "ARG_OF_PERICENTER": "50.3040",
    "MEAN_ANOMALY": "310.9412",
    "EPHEMERIS_TYPE": "0",
    "CLASSIFICATION_TYPE": "U",
    "NORAD_CAT_ID": "60692",
    "ELEMENT_SET_NO": "999",
    "REV_AT_EPOCH": "8034",
    "BSTAR": "0.00062183070000",
    "MEAN_MOTION_DOT": "0.00002154",
    "MEAN_MOTION_DDOT": "0.0000000000000",
    "SEMIMAJOR_AXIS": "7138.139",
    "PERIOD": "100.032",
    "APOAPSIS": "851.772",
    "PERIAPSIS": "668.235",
    "OBJECT_TYPE": "DEBRIS",
    "RCS_SIZE": "MEDIUM",
    "COUNTRY_CODE": "PRC",
    "LAUNCH_DATE": "2024-08-06",
    "SITE": "TSC",
    "DECAY_DATE": null,
    "FILE": "5039972",
    "GP_ID": "313181748",
    "TLE_LINE0": "0 CZ-6A DEB",
    "TLE_LINE1": "1 60692U 24140CV  26050.64184379  .00002154  00000-0  62183-3 0  9994",
    "TLE_LINE2": "2 60692  88.9910 285.6342 0128561  50.3040 310.9412 14.39545200 80343"
  },
  {
    "CCSDS_OMM_VERS": "3.0",
    "COMMENT": "GENERATED VIA SPACE-TRACK.ORG API",
    "CREATION_DATE": "2026-02-19T17:59:09",
    "ORIGINATOR": "18 SPCS",
    "OBJECT_NAME": "FENGYUN 1C DEB",
    "OBJECT_ID": "1999-025CUZ",
    "CENTER_NAME": "EARTH",
    "REF_FRAME": "TEME",
    "TIME_SYSTEM": "UTC",
    "MEAN_ELEMENT_THEORY": "SGP4",
    "EPOCH": "2026-02-19T15:24:00.415872",
    "MEAN_MOTION": "15.48219247",
    "ECCENTRICITY": "0.01224041",
    "INCLINATION": "97.0091",
    "RA_OF_ASC_NODE": "304.7524",
    "ARG_OF_PERICENTER": "198.6098",
    "MEAN_ANOMALY": "161.0659",
    "EPHEMERIS_TYPE": "0",
    "CLASSIFICATION_TYPE": "U",
    "NORAD_CAT_ID": "32203",
    "ELEMENT_SET_NO": "999",
    "REV_AT_EPOCH": "76161",
    "BSTAR": "0.00052733373000",
    "MEAN_MOTION_DOT": "0.00037575",
    "MEAN_MOTION_DDOT": "0.0000000000000",
    "SEMIMAJOR_AXIS": "6800.072",
    "PERIOD": "93.010",
    "APOAPSIS": "505.173",
    "PERIAPSIS": "338.702",
    "OBJECT_TYPE": "DEBRIS",
    "RCS_SIZE": "SMALL",
    "COUNTRY_CODE": "PRC",
    "LAUNCH_DATE": "1999-05-10",
    "SITE": "TSC",
    "DECAY_DATE": null,
    "FILE": "5039972",
    "GP_ID": "313165515",
    "TLE_LINE0": "0 FENGYUN 1C DEB",
    "TLE_LINE1": "1 32203U 99025CUZ 26050.64167148  .00037575  00000-0  52733-3 0  9995",
    "TLE_LINE2": "2 32203  97.0091 304.7524 0122404 198.6098 161.0659 15.48219247761619"
  },
  {
    "CCSDS_OMM_VERS": "3.0",
    "COMMENT": "GENERATED VIA SPACE-TRACK.ORG API",
    "CREATION_DATE": "2026-02-19T17:59:09",
    "ORIGINATOR": "18 SPCS",
    "OBJECT_NAME": "NIMBUS 2 DEB",
    "OBJECT_ID": "1966-040BC",
    "CENTER_NAME": "EARTH",
    "REF_FRAME": "TEME",
    "TIME_SYSTEM": "UTC",
    "MEAN_ELEMENT_THEORY": "SGP4",
    "EPOCH": "2026-02-19T15:23:13.397856",
    "MEAN_MOTION": "13.46797277",
    "ECCENTRICITY": "0.00515250",
    "INCLINATION": "100.4397",
    "RA_OF_ASC_NODE": "309.8439",
    "ARG_OF_PERICENTER": "87.7233",
    "MEAN_ANOMALY": "272.9796",
    "EPHEMERIS_TYPE": "0",
    "CLASSIFICATION_TYPE": "U",
    "NORAD_CAT_ID": "39294",
    "ELEMENT_SET_NO": "999",
    "REV_AT_EPOCH": "60386",
    "BSTAR": "0.00310905260000",
    "MEAN_MOTION_DOT": "0.00001848",
    "MEAN_MOTION_DDOT": "0.0000000000000",
    "SEMIMAJOR_AXIS": "7462.202",
    "PERIOD": "106.920",
    "APOAPSIS": "1122.516",
    "PERIAPSIS": "1045.618",
    "OBJECT_TYPE": "DEBRIS",
    "RCS_SIZE": "SMALL",
    "COUNTRY_CODE": "US",
    "LAUNCH_DATE": "1966-05-15",
    "SITE": "AFWTR",
    "DECAY_DATE": null,
    "FILE": "5039972",
    "GP_ID": "313168983",
    "TLE_LINE0": "0 NIMBUS 2 DEB",
    "TLE_LINE1": "1 39294U 66040BC  26050.64112729  .00001848  00000-0  31091-2 0  9995",
    "TLE_LINE2": "2 39294 100.4397 309.8439 0051525  87.7233 272.9796 13.46797277603865"
  },
  {
    "CCSDS_OMM_VERS": "3.0",
    "COMMENT": "GENERATED VIA SPACE-TRACK.ORG API",
    "CREATION_DATE": "2026-02-19T17:59:09",
    "ORIGINATOR": "18 SPCS",
    "OBJECT_NAME": "DELTA 1 DEB",
    "OBJECT_ID": "1975-052F",
    "CENTER_NAME": "EARTH",
    "REF_FRAME": "TEME",
    "TIME_SYSTEM": "UTC",
    "MEAN_ELEMENT_THEORY": "SGP4",
    "EPOCH": "2026-02-19T15:23:00.587328",
    "MEAN_MOTION": "12.61204870",
    "ECCENTRICITY": "0.04430802",
    "INCLINATION": "99.4412",
    "RA_OF_ASC_NODE": "105.8246",
    "ARG_OF_PERICENTER": "108.3671",
    "MEAN_ANOMALY": "42.3470",
    "EPHEMERIS_TYPE": "0",
    "CLASSIFICATION_TYPE": "U",
    "NORAD_CAT_ID": "21270",
    "ELEMENT_SET_NO": "999",
    "REV_AT_EPOCH": "59435",
    "BSTAR": "0.00083072906000",
    "MEAN_MOTION_DOT": "0.00000184",
    "MEAN_MOTION_DDOT": "0.0000000000000",
    "SEMIMAJOR_AXIS": "7796.112",
    "PERIOD": "114.177",
    "APOAPSIS": "1763.407",
    "PERIAPSIS": "1072.547",
    "OBJECT_TYPE": "DEBRIS",
    "RCS_SIZE": "SMALL",
    "COUNTRY_CODE": "US",
    "LAUNCH_DATE": "1975-06-12",
    "SITE": "AFWTR",
    "DECAY_DATE": null,
    "FILE": "5039972",
    "GP_ID": "313160607",
    "TLE_LINE0": "0 DELTA 1 DEB",
    "TLE_LINE1": "1 21270U 75052F   26050.64097902  .00000184  00000-0  83073-3 0  9998",
    "TLE_LINE2": "2 21270  99.4412 105.8246 0443080 108.3671  42.3470 12.61204870594351"
  },
  {
    "CCSDS_OMM_VERS": "3.0",
    "COMMENT": "GENERATED VIA SPACE-TRACK.ORG API",
    "CREATION_DATE": "2026-02-19T17:59:09",
    "ORIGINATOR": "18 SPCS",
    "OBJECT_NAME": "CZ-6A DEB",
    "OBJECT_ID": "2024-140VY",
    "CENTER_NAME": "EARTH",
    "REF_FRAME": "TEME",
    "TIME_SYSTEM": "UTC",
    "MEAN_ELEMENT_THEORY": "SGP4",
    "EPOCH": "2026-02-19T15:22:53.912064",
    "MEAN_MOTION": "14.23521029",
    "ECCENTRICITY": "0.00419393",
    "INCLINATION": "89.0563",
    "RA_OF_ASC_NODE": "291.2241",
    "ARG_OF_PERICENTER": "212.7571",
    "MEAN_ANOMALY": "147.1020",
    "EPHEMERIS_TYPE": "0",
    "CLASSIFICATION_TYPE": "U",
    "NORAD_CAT_ID": "61359",
    "ELEMENT_SET_NO": "999",
    "REV_AT_EPOCH": "7586",
    "BSTAR": "0.00075021178000",
    "MEAN_MOTION_DOT": "0.00001735",
    "MEAN_MOTION_DDOT": "0.0000000000000",
    "SEMIMAJOR_AXIS": "7191.607",
    "PERIOD": "101.158",
    "APOAPSIS": "843.633",
    "PERIAPSIS": "783.310",
    "OBJECT_TYPE": "DEBRIS",
    "RCS_SIZE": "SMALL",
    "COUNTRY_CODE": "PRC",
    "LAUNCH_DATE": "2024-08-06",
    "SITE": "TSC",
    "DECAY_DATE": null,
    "FILE": "5039972",
    "GP_ID": "313182020",
    "TLE_LINE0": "0 CZ-6A DEB",
    "TLE_LINE1": "1 61359U 24140VY  26050.64090176  .00001735  00000-0  75021-3 0  9995",
    "TLE_LINE2": "2 61359  89.0563 291.2241 0041939 212.7571 147.1020 14.23521029 75869"
  }
]